{
    "week": 294,
    "satellites": [
        {
            "Name": "COSMOS 2545 (760)",
            "Line1": "1 45358U 20018A   24329.54300565 -.00000045  00000+0  00000+0 0  9992",
            "Line2": "2 45358  64.6743 332.3701 0012204 249.2658 110.6343  2.13102639 36522",
            "SatelliteNumber": "45358",
            "Classification": "U",
            "LaunchYear": "20",
            "LaunchNumber": "018",
            "PieceOfLaunch": "A",
            "EpochYear": "24",
            "EpochDay": 329.54300565,
            "FirstDerivativeMeanMotion": -4.5e-07,
            "SecondDerivativeMeanMotion": "00000+0",
            "BSTAR": "00000+0",
            "SetNumber": "999",
            "Inclination": 64.6743,
            "RAAN": 332.3701,
            "Eccentricity": 0.0012204,
            "ArgumentOfPerigee": 249.2658,
            "MeanAnomaly": 110.6343,
            "MeanMotion": 2.13102639,
            "RevolutionNumber": "3652"
        },
        {
            "Name": "COSMOS 2547 (705K)",
            "Line1": "1 46805U 20075A   24329.26027562  .00000007  00000+0  00000+0 0  9992",
            "Line2": "2 46805  64.5958 211.5131 0006326 235.2116 124.8022  2.13102868 31760",
            "SatelliteNumber": "46805",
            "Classification": "U",
            "LaunchYear": "20",
            "LaunchNumber": "075",
            "PieceOfLaunch": "A",
            "EpochYear": "24",
            "EpochDay": 329.26027562,
            "FirstDerivativeMeanMotion": 7e-08,
            "SecondDerivativeMeanMotion": "00000+0",
            "BSTAR": "00000+0",
            "SetNumber": "999",
            "Inclination": 64.5958,
            "RAAN": 211.5131,
            "Eccentricity": 0.0006326,
            "ArgumentOfPerigee": 235.2116,
            "MeanAnomaly": 124.8022,
            "MeanMotion": 2.13102868,
            "RevolutionNumber": "3176"
        },
        {
            "Name": "COSMOS 2557 (706K)",
            "Line1": "1 52984U 22075A   24329.42624367 -.00000047  00000+0  00000+0 0  9998",
            "Line2": "2 52984  64.6052 334.4894 0014099 277.0082  82.8648  2.13102110 18575",
            "SatelliteNumber": "52984",
            "Classification": "U",
            "LaunchYear": "22",
            "LaunchNumber": "075",
            "PieceOfLaunch": "A",
            "EpochYear": "24",
            "EpochDay": 329.42624367,
            "FirstDerivativeMeanMotion": -4.7e-07,
            "SecondDerivativeMeanMotion": "00000+0",
            "BSTAR": "00000+0",
            "SetNumber": "999",
            "Inclination": 64.6052,
            "RAAN": 334.4894,
            "Eccentricity": 0.0014099,
            "ArgumentOfPerigee": 277.0082,
            "MeanAnomaly": 82.8648,
            "MeanMotion": 2.1310211,
            "RevolutionNumber": "1857"
        },
        {
            "Name": "COSMOS 2559 (707K)",
            "Line1": "1 54031U 22130A   24329.36965507 -.00000047  00000+0  00000+0 0  9992",
            "Line2": "2 54031  64.5772 334.6034 0008266 232.7945 127.1636  2.13101464 16547",
            "SatelliteNumber": "54031",
            "Classification": "U",
            "LaunchYear": "22",
            "LaunchNumber": "130",
            "PieceOfLaunch": "A",
            "EpochYear": "24",
            "EpochDay": 329.36965507,
            "FirstDerivativeMeanMotion": -4.7e-07,
            "SecondDerivativeMeanMotion": "00000+0",
            "BSTAR": "00000+0",
            "SetNumber": "999",
            "Inclination": 64.5772,
            "RAAN": 334.6034,
            "Eccentricity": 0.0008266,
            "ArgumentOfPerigee": 232.7945,
            "MeanAnomaly": 127.1636,
            "MeanMotion": 2.13101464,
            "RevolutionNumber": "1654"
        },
        {
            "Name": "COSMOS 2564 (761)",
            "Line1": "1 54377U 22161A   24329.09059900  .00000005  00000+0  00000+0 0  9993",
            "Line2": "2 54377  64.7372 211.6523 0008424 211.4148 148.6078  2.13102172 15487",
            "SatelliteNumber": "54377",
            "Classification": "U",
            "LaunchYear": "22",
            "LaunchNumber": "161",
            "PieceOfLaunch": "A",
            "EpochYear": "24",
            "EpochDay": 329.090599,
            "FirstDerivativeMeanMotion": 5e-08,
            "SecondDerivativeMeanMotion": "00000+0",
            "BSTAR": "00000+0",
            "SetNumber": "999",
            "Inclination": 64.7372,
            "RAAN": 211.6523,
            "Eccentricity": 0.0008424,
            "ArgumentOfPerigee": 211.4148,
            "MeanAnomaly": 148.6078,
            "MeanMotion": 2.13102172,
            "RevolutionNumber": "1548"
        },
        {
            "Name": "COSMOS 2569 (703K)",
            "Line1": "1 57517U 23114A   24329.10660289  .00000015  00000+0  00000+0 0  9992",
            "Line2": "2 57517  64.9928  91.8942 0009434 289.6384  70.2493  2.13104117 10116",
            "SatelliteNumber": "57517",
            "Classification": "U",
            "LaunchYear": "23",
            "LaunchNumber": "114",
            "PieceOfLaunch": "A",
            "EpochYear": "24",
            "EpochDay": 329.10660289,
            "FirstDerivativeMeanMotion": 1.5e-07,
            "SecondDerivativeMeanMotion": "00000+0",
            "BSTAR": "00000+0",
            "SetNumber": "999",
            "Inclination": 64.9928,
            "RAAN": 91.8942,
            "Eccentricity": 0.0009434,
            "ArgumentOfPerigee": 289.6384,
            "MeanAnomaly": 70.2493,
            "MeanMotion": 2.13104117,
            "RevolutionNumber": "1011"
        }
    ]
}